[{"OBJECT_NAME":"STARLINK-32532","OBJECT_ID":"2024-224T","EPOCH":"2026-03-09T23:08:33.570816","MEAN_MOTION":15.27591209,"ECCENTRICITY":5.561e-5,"INCLINATION":42.9995,"RA_OF_ASC_NODE":156.4155,"ARG_OF_PERICENTER":33.602,"MEAN_ANOMALY":326.4867,"EPHEMERIS_TYPE":0,"CLASSIFICATION_TYPE":"U","NORAD_CAT_ID":62156,"ELEMENT_SET_NO":999,"REV_AT_EPOCH":7236,"BSTAR":0.00084088698,"MEAN_MOTION_DOT":0.00022957,"MEAN_MOTION_DDOT":0},{"OBJECT_NAME":"SL-3 R\/B","OBJECT_ID":"1982-027B","EPOCH":"2026-03-09T22:44:40.208640","MEAN_MOTION":15.28335844,"ECCENTRICITY":0.00065199,"INCLINATION":81.188,"RA_OF_ASC_NODE":37.4466,"ARG_OF_PERICENTER":276.581,"MEAN_ANOMALY":83.4683,"EPHEMERIS_TYPE":0,"CLASSIFICATION_TYPE":"U","NORAD_CAT_ID":13121,"ELEMENT_SET_NO":999,"REV_AT_EPOCH":39859,"BSTAR":0.00030526741,"MEAN_MOTION_DOT":8.453e-5,"MEAN_MOTION_DDOT":0}]
